CRE (WAAS/PRN 138)      
1 28868U 05036A   22054.62456973 -.00000075  00000+0  00000+0 0  9992
2 28868   0.2730  94.1507 0002742 282.4416 254.4105  1.00271629 30668
IOR-W (EGNOS/PRN 126)   
1 28899U 05044A   22054.52965880  .00000010  00000+0  00000+0 0  9994
2 28899   3.4160  36.2868 0002743 310.2600  61.3982  1.00271547 59733
QZS-1 (QZSS/PRN 183)    
1 37158U 10045A   22054.53896197 -.00000161  00000+0  00000+0 0  9992
2 37158  42.2142 134.9665 0767554 270.6879  83.8467  1.00259902 41951
GSAT-8 (GAGAN/PRN 127)  
1 37605U 11022A   22054.61483578  .00000084  00000+0  00000+0 0  9992
2 37605   0.0336 267.3560 0006803  21.3395 141.1513  1.00271227 37428
LUCH 5A (SDCM/PRN 140)  
1 37951U 11074B   22054.39866586 -.00000047  00000+0  00000+0 0  9992
2 37951   4.7310  99.9483 0002987 247.8900 116.0273  1.00275852 37404
SES-5 (EGNOS/PRN 136)   
1 38652U 12036A   22054.32757816  .00000033  00000+0  00000+0 0  9992
2 38652   0.0570 298.1033 0001961  41.1268 296.8497  1.00271629 28691
GSAT-10 (GAGAN/PRN 128) 
1 38779U 12051B   22054.48481983 -.00000166  00000+0  00000+0 0  9993
2 38779   0.1155 270.6225 0002238 341.4590 158.8148  1.00271731 34322
LUCH 5B (SDCM/PRN 125)  
1 38977U 12061A   22054.26046042 -.00000136  00000+0  00000+0 0  9990
2 38977   7.0447  63.4618 0001388 326.4077 200.6486  1.00270882 34387
ASTRA 5B (EGNOS/PRN 123)
1 39617U 14011B   22054.23695253  .00000154  00000+0  00000+0 0  9999
2 39617   0.0721 302.1428 0003360  18.0579 309.6602  1.00270110 28873
LUCH 5V (SDCM/PRN 141)  
1 39727U 14023A   22054.56971624 -.00000270  00000+0  00000+0 0  9999
2 39727   1.2338  72.9687 0002543 312.2688  68.0071  1.00272956 28576
GSAT-15 (GAGAN/PRN 139) 
1 41028U 15065A   22054.06700907 -.00000258  00000+0  00000+0 0  9998
2 41028   0.0959 275.0360 0000362 121.2149 234.2987  1.00271412 23013
E 117 W B (WAAS/PRN 131)
1 41589U 16038B   22054.46359347 -.00000012  00000+0  00000+0 0  9991
2 41589   0.0087 255.9494 0000180  38.7516 268.4991  1.00273256 20884
SES-15 (WAAS/PRN 133)   
1 42709U 17026A   22054.60626796  .00000059  00000+0  00000+0 0  9995
2 42709   0.0281   6.9279 0000345   2.2355 233.3802  1.00270210 18358
QZS-2 (QZSS/PRN 184)    
1 42738U 17028A   22054.42534286 -.00000105  00000+0  00000+0 0  9994
2 42738  41.9614 265.7713 0748859 270.1125 271.4520  1.00269053 17354
QZS-3 (QZSS/PRN 189)    
1 42917U 17048A   22054.36076132 -.00000348  00000+0  00000+0 0  9998
2 42917   0.0745 231.0613 0002047 115.5801  63.4424  1.00274816 16460
QZS-4 (QZSS/PRN 185)    
1 42965U 17062A   22054.27574260 -.00000306  00000+0  00000+0 0  9996
2 42965  40.7921   3.5792 0749574 269.4529 118.0341  1.00284355 16025
